start=new Date('2022-12-13T00:00:00.000Z').valueOf();
sats=[{"COUNTRY_CODE":"US","MEAN_MOTION_DOT":"0.00027912","MEAN_ANOMALY":"127.6419","PERIOD":"91.534","RA_OF_ASC_NODE":"222.2500","REV_AT_EPOCH":"1286","ECCENTRICITY":"0.00033950","SEMIMAJOR_AXIS":"6727.939","BSTAR":"0.00020273000000","REF_FRAME":"TEME","TIME_SYSTEM":"UTC","MEAN_MOTION_DDOT":"0.0000000000000","ARG_OF_PERICENTER":"6.3034","PERIAPSIS":"347.520","INCLINATION":"53.2099","MEAN_MOTION":"15.73184721","ELEMENT_SET_NO":"999","TLE_LINE2":"2 53930  53.2099 222.2500 0003395   6.3034 127.6419 15.73184721 12865","CENTER_NAME":"EARTH","TLE_LINE1":"1 53930U 22119AW  22346.91667824  .00027912  00000-0  20273-3 0  9993","DECAY_DATE":null,"MEAN_ELEMENT_THEORY":"SGP4","GP_ID":"220173683","CLASSIFICATION_TYPE":"U","APOAPSIS":"352.088","EPOCH":"2022-12-12T22:00:00.999936","OBJECT_TYPE":"PAYLOAD","RCS_SIZE":"LARGE","SITE":"AFETR","EPHEMERIS_TYPE":"0","OBJECT_ID":"2022-119AW","LAUNCH_DATE":"2022-09-24","OBJECT_NAME":"STARLINK-5010","NORAD_CAT_ID":"53930","FILE":"3694256"},{"GP_ID":"220211155","CLASSIFICATION_TYPE":"U","APOAPSIS":"351.995","EPOCH":"2022-12-12T16:51:16.123680","OBJECT_TYPE":"PAYLOAD","TLE_LINE1":"1 53931U 22119AX  22346.70226995  .00004134  00000-0  33852-4 0  9990","DECAY_DATE":null,"MEAN_ELEMENT_THEORY":"SGP4","OBJECT_NAME":"STARLINK-5015","LAUNCH_DATE":"2022-09-24","NORAD_CAT_ID":"53931","FILE":"3695286","RCS_SIZE":"LARGE","SITE":"AFETR","EPHEMERIS_TYPE":"0","OBJECT_ID":"2022-119AX","RA_OF_ASC_NODE":"223.3067","REV_AT_EPOCH":"1325","ECCENTRICITY":"0.00033890","SEMIMAJOR_AXIS":"6727.850","COUNTRY_CODE":"US","MEAN_MOTION_DOT":"0.00004134","MEAN_ANOMALY":"344.7481","PERIOD":"91.532","INCLINATION":"53.2118","PERIAPSIS":"347.435","ARG_OF_PERICENTER":"15.3642","MEAN_MOTION":"15.73215887","ELEMENT_SET_NO":"999","TLE_LINE2":"2 53931  53.2118 223.3067 0003389  15.3642 344.7481 15.73215887 13259","CENTER_NAME":"EARTH","BSTAR":"0.00003385200000","REF_FRAME":"TEME","TIME_SYSTEM":"UTC","MEAN_MOTION_DDOT":"0.0000000000000"},{"MEAN_ELEMENT_THEORY":"SGP4","DECAY_DATE":null,"TLE_LINE1":"1 53932U 22119AY  22346.63884990  .00014914  00000-0  11037-3 0  9995","EPOCH":"2022-12-12T15:19:56.631360","OBJECT_TYPE":"PAYLOAD","APOAPSIS":"352.104","GP_ID":"220211586","CLASSIFICATION_TYPE":"U","OBJECT_ID":"2022-119AY","EPHEMERIS_TYPE":"0","RCS_SIZE":"LARGE","SITE":"AFETR","NORAD_CAT_ID":"53932","FILE":"3695286","OBJECT_NAME":"STARLINK-4772","LAUNCH_DATE":"2022-09-24","MEAN_ANOMALY":"0.0167","PERIOD":"91.532","MEAN_MOTION_DOT":"0.00014914","COUNTRY_CODE":"US","SEMIMAJOR_AXIS":"6727.825","REV_AT_EPOCH":"1324","ECCENTRICITY":"0.00035870","RA_OF_ASC_NODE":"223.6297","TIME_SYSTEM":"UTC","MEAN_MOTION_DDOT":"0.0000000000000","BSTAR":"0.00011037000000","REF_FRAME":"TEME","TLE_LINE2":"2 53932  53.2127 223.6297 0003587   0.0853   0.0167 15.73224515 13243","CENTER_NAME":"EARTH","ELEMENT_SET_NO":"999","MEAN_MOTION":"15.73224515","PERIAPSIS":"347.277","ARG_OF_PERICENTER":"0.0853","INCLINATION":"53.2127"},{"LAUNCH_DATE":"2022-09-24","OBJECT_NAME":"STARLINK-4782","FILE":"3694257","NORAD_CAT_ID":"53933","SITE":"AFETR","RCS_SIZE":"LARGE","EPHEMERIS_TYPE":"0","OBJECT_ID":"2022-119AZ","CLASSIFICATION_TYPE":"U","GP_ID":"220173202","APOAPSIS":"350.937","EPOCH":"2022-12-12T16:50:55.200192","OBJECT_TYPE":"PAYLOAD","TLE_LINE1":"1 53933U 22119AZ  22346.70202778 -.00217474  00000-0 -15709-2 0  9999","DECAY_DATE":null,"MEAN_ELEMENT_THEORY":"SGP4","INCLINATION":"53.2119","PERIAPSIS":"347.397","ARG_OF_PERICENTER":"9.6956","MEAN_MOTION":"15.73408035","ELEMENT_SET_NO":"999","CENTER_NAME":"EARTH","TLE_LINE2":"2 53933  53.2119 223.3061 0002631   9.6956 350.4114 15.73408035 12827","REF_FRAME":"TEME","BSTAR":"-0.00157090000000","MEAN_MOTION_DDOT":"0.0000000000000","TIME_SYSTEM":"UTC","RA_OF_ASC_NODE":"223.3061","ECCENTRICITY":"0.00026310","REV_AT_EPOCH":"1282","SEMIMAJOR_AXIS":"6727.302","COUNTRY_CODE":"US","MEAN_MOTION_DOT":"-0.00217474","PERIOD":"91.521","MEAN_ANOMALY":"350.4114"},{"TLE_LINE1":"1 53934U 22119BA  22345.93984282  .00017121  00000-0  12609-3 0  9993","MEAN_ELEMENT_THEORY":"SGP4","DECAY_DATE":null,"CLASSIFICATION_TYPE":"U","GP_ID":"220170872","EPOCH":"2022-12-11T22:33:22.419648","OBJECT_TYPE":"PAYLOAD","APOAPSIS":"351.751","EPHEMERIS_TYPE":"0","SITE":"AFETR","RCS_SIZE":"LARGE","OBJECT_ID":"2022-119BA","NORAD_CAT_ID":"53934","FILE":"3694071","OBJECT_NAME":"STARLINK-4775","LAUNCH_DATE":"2022-09-24","COUNTRY_CODE":"US","PERIOD":"91.533","MEAN_ANOMALY":"337.8201","MEAN_MOTION_DOT":"0.00017121","RA_OF_ASC_NODE":"227.0817","SEMIMAJOR_AXIS":"6727.865","ECCENTRICITY":"0.00030040","REV_AT_EPOCH":"1314","REF_FRAME":"TEME","BSTAR":"0.00012609000000","MEAN_MOTION_DDOT":"0.0000000000000","TIME_SYSTEM":"UTC","MEAN_MOTION":"15.73210539","ARG_OF_PERICENTER":"22.2949","PERIAPSIS":"347.709","INCLINATION":"53.2130","CENTER_NAME":"EARTH","TLE_LINE2":"2 53934  53.2130 227.0817 0003004  22.2949 337.8201 15.73210539 13141","ELEMENT_SET_NO":"999"},{"CLASSIFICATION_TYPE":"U","GP_ID":"220171617","APOAPSIS":"351.884","EPOCH":"2022-12-12T01:36:01.168416","OBJECT_TYPE":"PAYLOAD","TLE_LINE1":"1 53935U 22119BB  22346.06668019  .00020788  00000-0  15199-3 0  9996","DECAY_DATE":null,"MEAN_ELEMENT_THEORY":"SGP4","LAUNCH_DATE":"2022-09-24","OBJECT_NAME":"STARLINK-5000","NORAD_CAT_ID":"53935","FILE":"3694071","SITE":"AFETR","RCS_SIZE":"LARGE","EPHEMERIS_TYPE":"0","OBJECT_ID":"2022-119BB","RA_OF_ASC_NODE":"226.4534","ECCENTRICITY":"0.00032630","REV_AT_EPOCH":"1315","SEMIMAJOR_AXIS":"6727.824","COUNTRY_CODE":"US","MEAN_MOTION_DOT":"0.00020788","PERIOD":"91.532","MEAN_ANOMALY":"344.9088","PERIAPSIS":"347.494","INCLINATION":"53.2117","ARG_OF_PERICENTER":"15.2030","MEAN_MOTION":"15.73225037","ELEMENT_SET_NO":"999","CENTER_NAME":"EARTH","TLE_LINE2":"2 53935  53.2117 226.4534 0003263  15.2030 344.9088 15.73225037 13158","REF_FRAME":"TEME","BSTAR":"0.00015199000000","MEAN_MOTION_DDOT":"0.0000000000000","TIME_SYSTEM":"UTC"},{"INCLINATION":"53.2127","PERIAPSIS":"347.569","ARG_OF_PERICENTER":"11.2584","MEAN_MOTION":"15.73215933","ELEMENT_SET_NO":"999","CENTER_NAME":"EARTH","TLE_LINE2":"2 53936  53.2127 223.3080 0003189  11.2584 348.8507 15.73215933 13253","REF_FRAME":"TEME","BSTAR":"0.00017849000000","MEAN_MOTION_DDOT":"0.0000000000000","TIME_SYSTEM":"UTC","RA_OF_ASC_NODE":"223.3080","ECCENTRICITY":"0.00031890","REV_AT_EPOCH":"1325","SEMIMAJOR_AXIS":"6727.850","COUNTRY_CODE":"US","MEAN_MOTION_DOT":"0.00024523","PERIOD":"91.532","MEAN_ANOMALY":"348.8507","OBJECT_NAME":"STARLINK-4791","LAUNCH_DATE":"2022-09-24","FILE":"3695286","NORAD_CAT_ID":"53936","SITE":"AFETR","RCS_SIZE":"LARGE","EPHEMERIS_TYPE":"0","OBJECT_ID":"2022-119BC","CLASSIFICATION_TYPE":"U","GP_ID":"220212010","APOAPSIS":"351.860","OBJECT_TYPE":"PAYLOAD","EPOCH":"2022-12-12T16:50:58.154208","TLE_LINE1":"1 53936U 22119BC  22346.70206197  .00024523  00000-0  17849-3 0  9998","DECAY_DATE":null,"MEAN_ELEMENT_THEORY":"SGP4"},{"REV_AT_EPOCH":"1326","ECCENTRICITY":"0.00037830","SEMIMAJOR_AXIS":"6727.843","RA_OF_ASC_NODE":"222.9882","MEAN_MOTION_DOT":"0.00002077","MEAN_ANOMALY":"352.0010","PERIOD":"91.532","COUNTRY_CODE":"US","ELEMENT_SET_NO":"999","TLE_LINE2":"2 53937  53.2114 222.9882 0003783   8.1070 352.0010 15.73218401 13260","CENTER_NAME":"EARTH","INCLINATION":"53.2114","PERIAPSIS":"347.163","ARG_OF_PERICENTER":"8.1070","MEAN_MOTION":"15.73218401","TIME_SYSTEM":"UTC","MEAN_MOTION_DDOT":"0.0000000000000","BSTAR":"0.00001922300000","REF_FRAME":"TEME","APOAPSIS":"352.253","EPOCH":"2022-12-12T18:22:08.397408","OBJECT_TYPE":"PAYLOAD","GP_ID":"220210941","CLASSIFICATION_TYPE":"U","DECAY_DATE":null,"MEAN_ELEMENT_THEORY":"SGP4","TLE_LINE1":"1 53937U 22119BD  22346.76537497  .00002077  00000-0  19223-4 0  9994","OBJECT_NAME":"STARLINK-4765","LAUNCH_DATE":"2022-09-24","NORAD_CAT_ID":"53937","FILE":"3695286","OBJECT_ID":"2022-119BD","RCS_SIZE":"LARGE","SITE":"AFETR","EPHEMERIS_TYPE":"0"},{"OBJECT_TYPE":"PAYLOAD","EPOCH":"2022-12-12T19:10:36.394176","APOAPSIS":"541.282","GP_ID":"220210943","CLASSIFICATION_TYPE":"U","MEAN_ELEMENT_THEORY":"SGP4","DECAY_DATE":null,"TLE_LINE1":"1 53964U 22125A   22346.79903234  .00001344  00000-0  10257-3 0  9993","NORAD_CAT_ID":"53964","FILE":"3695286","LAUNCH_DATE":"2022-10-05","OBJECT_NAME":"STARLINK-4633","OBJECT_ID":"2022-125A","EPHEMERIS_TYPE":"0","RCS_SIZE":"LARGE","SITE":"AFWTR","SEMIMAJOR_AXIS":"6917.887","REV_AT_EPOCH":"1074","ECCENTRICITY":"0.00022120","RA_OF_ASC_NODE":"134.4762","MEAN_ANOMALY":"302.2410","PERIOD":"95.438","MEAN_MOTION_DOT":"0.00001344","COUNTRY_CODE":"US","TLE_LINE2":"2 53964  53.2159 134.4762 0002212  57.8796 302.2410 15.08837968 10749","CENTER_NAME":"EARTH","ELEMENT_SET_NO":"999","MEAN_MOTION":"15.08837968","PERIAPSIS":"538.221","INCLINATION":"53.2159","ARG_OF_PERICENTER":"57.8796","TIME_SYSTEM":"UTC","MEAN_MOTION_DDOT":"0.0000000000000","BSTAR":"0.00010257000000","REF_FRAME":"TEME"},{"COUNTRY_CODE":"US","MEAN_ANOMALY":"309.8658","PERIOD":"95.437","MEAN_MOTION_DOT":"0.00001904","RA_OF_ASC_NODE":"134.4535","SEMIMAJOR_AXIS":"6917.876","REV_AT_EPOCH":"1074","ECCENTRICITY":"0.00020240","BSTAR":"0.00013770000000","REF_FRAME":"TEME","TIME_SYSTEM":"UTC","MEAN_MOTION_DDOT":"0.0000000000000","MEAN_MOTION":"15.08841570","INCLINATION":"53.2177","PERIAPSIS":"538.340","ARG_OF_PERICENTER":"50.2512","TLE_LINE2":"2 53965  53.2177 134.4535 0002024  50.2512 309.8658 15.08841570 10743","CENTER_NAME":"EARTH","ELEMENT_SET_NO":"999","TLE_LINE1":"1 53965U 22125B   22346.79534428  .00001904  00000-0  13770-3 0  9994","MEAN_ELEMENT_THEORY":"SGP4","DECAY_DATE":null,"GP_ID":"220211801","CLASSIFICATION_TYPE":"U","OBJECT_TYPE":"PAYLOAD","EPOCH":"2022-12-12T19:05:17.745792","APOAPSIS":"541.141","EPHEMERIS_TYPE":"0","RCS_SIZE":"LARGE","SITE":"AFWTR","OBJECT_ID":"2022-125B","NORAD_CAT_ID":"53965","FILE":"3695286","LAUNCH_DATE":"2022-10-05","OBJECT_NAME":"STARLINK-4578"}];
